{
  "type": "FeatureCollection",
  "features": [
    {
      "type": "Feature",
      "properties": {
        "norad_id": 34079,
        "name": "IRIDIUM 33 DEB",
        "group": "iridium-33-debris",
        "lat": 85.00505450888696,
        "lon": 53.65515912966557,
        "alt_km": 610.4181594285201,
        "timestamp": "2025-12-15T22:44:29.314380+00:00",
        "meta_object_name": "IRIDIUM 33 DEB",
        "meta_object_id": "1997-051CN",
        "meta_epoch": "2025-12-15T07:52:02.606880",
        "meta_mean_motion": 14.83601624,
        "meta_eccentricity": 0.0005294,
        "meta_inclination": 86.3778,
        "meta_ra_of_asc_node": 7.4856,
        "meta_arg_of_pericenter": 359.8748,
        "meta_mean_anomaly": 18.7249,
        "meta_ephemeris_type": 0,
        "meta_classification_type": "U",
        "meta_norad_cat_id": 34079,
        "meta_element_set_no": 999,
        "meta_rev_at_epoch": 89016,
        "meta_bstar": 0.0011079142,
        "meta_mean_motion_dot": 9.162e-05,
        "meta_mean_motion_ddot": 0,
        "tle_line1": "1 34079U 97051CN  25349.32780795  .00009162  00000+0  11079-2 0  9996",
        "tle_line2": "2 34079  86.3778   7.4856 0005294 359.8748  18.7249 14.83601624890168"
      },
      "geometry": {
        "type": "Point",
        "coordinates": [
          53.65515912966557,
          85.00505450888696
        ]
      }
    },
    {
      "type": "Feature",
      "properties": {
        "norad_id": 34088,
        "name": "IRIDIUM 33 DEB",
        "group": "iridium-33-debris",
        "lat": -86.23723245018905,
        "lon": -76.757878397568,
        "alt_km": 601.5324800584276,
        "timestamp": "2025-12-15T22:44:29.314391+00:00",
        "meta_object_name": "IRIDIUM 33 DEB",
        "meta_object_id": "1997-051CX",
        "meta_epoch": "2025-12-15T08:43:17.800608",
        "meta_mean_motion": 14.91519953,
        "meta_eccentricity": 0.0006051,
        "meta_inclination": 86.3852,
        "meta_ra_of_asc_node": 29.5186,
        "meta_arg_of_pericenter": 168.2567,
        "meta_mean_anomaly": 206.0704,
        "meta_ephemeris_type": 0,
        "meta_classification_type": "U",
        "meta_norad_cat_id": 34088,
        "meta_element_set_no": 999,
        "meta_rev_at_epoch": 88781,
        "meta_bstar": 0.0014607296,
        "meta_mean_motion_dot": 0.0001467,
        "meta_mean_motion_ddot": 0,
        "tle_line1": "1 34088U 97051CX  25349.36340047  .00014670  00000+0  14607-2 0  9992",
        "tle_line2": "2 34088  86.3852  29.5186 0006051 168.2567 206.0704 14.91519953887813"
      },
      "geometry": {
        "type": "Point",
        "coordinates": [
          -76.757878397568,
          -86.23723245018905
        ]
      }
    },
    {
      "type": "Feature",
      "properties": {
        "norad_id": 34091,
        "name": "IRIDIUM 33 DEB",
        "group": "iridium-33-debris",
        "lat": -14.932879156370781,
        "lon": 64.38688704483543,
        "alt_km": 617.1135381986205,
        "timestamp": "2025-12-15T22:44:29.314401+00:00",
        "meta_object_name": "IRIDIUM 33 DEB",
        "meta_object_id": "1997-051DA",
        "meta_epoch": "2025-12-15T06:36:15.430176",
        "meta_mean_motion": 14.82039108,
        "meta_eccentricity": 0.00334728,
        "meta_inclination": 86.3419,
        "meta_ra_of_asc_node": 65.6725,
        "meta_arg_of_pericenter": 284.0176,
        "meta_mean_anomaly": 75.7325,
        "meta_ephemeris_type": 0,
        "meta_classification_type": "U",
        "meta_norad_cat_id": 34091,
        "meta_element_set_no": 999,
        "meta_rev_at_epoch": 87904,
        "meta_bstar": 0.0030295558,
        "meta_mean_motion_dot": 0.00024368,
        "meta_mean_motion_ddot": 0,
        "tle_line1": "1 34091U 97051DA  25349.27517859  .00024368  00000+0  30296-2 0  9990",
        "tle_line2": "2 34091  86.3419  65.6725 0033472 284.0176  75.7325 14.82039108879041"
      },
      "geometry": {
        "type": "Point",
        "coordinates": [
          64.38688704483543,
          -14.932879156370781
        ]
      }
    },
    {
      "type": "Feature",
      "properties": {
        "norad_id": 34097,
        "name": "IRIDIUM 33 DEB",
        "group": "iridium-33-debris",
        "lat": 49.66143153726214,
        "lon": 4.480469930837787,
        "alt_km": 739.8379109745229,
        "timestamp": "2025-12-15T22:44:29.314411+00:00",
        "meta_object_name": "IRIDIUM 33 DEB",
        "meta_object_id": "1997-051DG",
        "meta_epoch": "2025-12-15T00:45:16.242336",
        "meta_mean_motion": 14.34797868,
        "meta_eccentricity": 0.00823375,
        "meta_inclination": 86.2008,
        "meta_ra_of_asc_node": 0.3968,
        "meta_arg_of_pericenter": 354.7232,
        "meta_mean_anomaly": 5.3086,
        "meta_ephemeris_type": 0,
        "meta_classification_type": "U",
        "meta_norad_cat_id": 34097,
        "meta_element_set_no": 999,
        "meta_rev_at_epoch": 87152,
        "meta_bstar": 0.0010868906,
        "meta_mean_motion_dot": 3.22e-05,
        "meta_mean_motion_ddot": 0,
        "tle_line1": "1 34097U 97051DG  25349.03143799  .00003220  00000+0  10869-2 0  9996",
        "tle_line2": "2 34097  86.2008   0.3968 0082337 354.7232   5.3086 14.34797868871526"
      },
      "geometry": {
        "type": "Point",
        "coordinates": [
          4.480469930837787,
          49.66143153726214
        ]
      }
    },
    {
      "type": "Feature",
      "properties": {
        "norad_id": 34145,
        "name": "IRIDIUM 33 DEB",
        "group": "iridium-33-debris",
        "lat": 44.351617934909015,
        "lon": -25.18712156091504,
        "alt_km": 716.1830263525962,
        "timestamp": "2025-12-15T22:44:29.314421+00:00",
        "meta_object_name": "IRIDIUM 33 DEB",
        "meta_object_id": "1997-051DY",
        "meta_epoch": "2025-12-14T23:13:34.603968",
        "meta_mean_motion": 14.42306972,
        "meta_eccentricity": 0.00557707,
        "meta_inclination": 86.2115,
        "meta_ra_of_asc_node": 331.535,
        "meta_arg_of_pericenter": 86.7447,
        "meta_mean_anomaly": 274.0131,
        "meta_ephemeris_type": 0,
        "meta_classification_type": "U",
        "meta_norad_cat_id": 34145,
        "meta_element_set_no": 999,
        "meta_rev_at_epoch": 87670,
        "meta_bstar": 0.00084072497,
        "meta_mean_motion_dot": 2.847e-05,
        "meta_mean_motion_ddot": 0,
        "tle_line1": "1 34145U 97051DY  25348.96776162  .00002847  00000+0  84072-3 0  9999",
        "tle_line2": "2 34145  86.2115 331.5350 0055770  86.7447 274.0131 14.42306972876706"
      },
      "geometry": {
        "type": "Point",
        "coordinates": [
          -25.18712156091504,
          44.351617934909015
        ]
      }
    },
    {
      "type": "Feature",
      "properties": {
        "norad_id": 34146,
        "name": "IRIDIUM 33 DEB",
        "group": "iridium-33-debris",
        "lat": 59.48130263301296,
        "lon": 162.0538114362779,
        "alt_km": 723.03299310476,
        "timestamp": "2025-12-15T22:44:29.314432+00:00",
        "meta_object_name": "IRIDIUM 33 DEB",
        "meta_object_id": "1997-051DZ",
        "meta_epoch": "2025-12-15T00:56:20.311872",
        "meta_mean_motion": 14.4906728,
        "meta_eccentricity": 0.00257158,
        "meta_inclination": 86.2837,
        "meta_ra_of_asc_node": 348.7851,
        "meta_arg_of_pericenter": 213.5044,
        "meta_mean_anomaly": 211.0793,
        "meta_ephemeris_type": 0,
        "meta_classification_type": "U",
        "meta_norad_cat_id": 34146,
        "meta_element_set_no": 999,
        "meta_rev_at_epoch": 88140,
        "meta_bstar": 0.00068451844,
        "meta_mean_motion_dot": 2.629e-05,
        "meta_mean_motion_ddot": 0,
        "tle_line1": "1 34146U 97051DZ  25349.03912398  .00002629  00000+0  68452-3 0  9994",
        "tle_line2": "2 34146  86.2837 348.7851 0025715 213.5044 211.0793 14.49067280881404"
      },
      "geometry": {
        "type": "Point",
        "coordinates": [
          162.0538114362779,
          59.48130263301296
        ]
      }
    },
    {
      "type": "Feature",
      "properties": {
        "norad_id": 34159,
        "name": "IRIDIUM 33 DEB",
        "group": "iridium-33-debris",
        "lat": 73.26740900321973,
        "lon": 59.13010618479263,
        "alt_km": 773.6095164857488,
        "timestamp": "2025-12-15T22:44:29.314442+00:00",
        "meta_object_name": "IRIDIUM 33 DEB",
        "meta_object_id": "1997-051EN",
        "meta_epoch": "2025-12-15T04:02:07.441152",
        "meta_mean_motion": 14.38500361,
        "meta_eccentricity": 0.00260031,
        "meta_inclination": 86.3507,
        "meta_ra_of_asc_node": 47.2061,
        "meta_arg_of_pericenter": 279.2441,
        "meta_mean_anomaly": 80.5816,
        "meta_ephemeris_type": 0,
        "meta_classification_type": "U",
        "meta_norad_cat_id": 34159,
        "meta_element_set_no": 999,
        "meta_rev_at_epoch": 87994,
        "meta_bstar": 0.0004355916,
        "meta_mean_motion_dot": 1.354e-05,
        "meta_mean_motion_ddot": 0,
        "tle_line1": "1 34159U 97051EN  25349.16814168  .00001354  00000+0  43559-3 0  9993",
        "tle_line2": "2 34159  86.3507  47.2061 0026003 279.2441  80.5816 14.38500361879949"
      },
      "geometry": {
        "type": "Point",
        "coordinates": [
          59.13010618479263,
          73.26740900321973
        ]
      }
    }
  ]
}